[{"OBJECT_NAME":"STARLINK-32770","OBJECT_ID":"2025-014G","EPOCH":"2026-03-09T06:10:02.626176","MEAN_MOTION":15.27588135,"ECCENTRICITY":4.079e-5,"INCLINATION":42.9954,"RA_OF_ASC_NODE":156.6242,"ARG_OF_PERICENTER":256.5,"MEAN_ANOMALY":103.5806,"EPHEMERIS_TYPE":0,"CLASSIFICATION_TYPE":"U","NORAD_CAT_ID":62741,"ELEMENT_SET_NO":999,"REV_AT_EPOCH":6319,"BSTAR":0.0012357319,"MEAN_MOTION_DOT":0.00033908,"MEAN_MOTION_DDOT":0},{"OBJECT_NAME":"OBJECT BC","OBJECT_ID":"2025-313BC","EPOCH":"2026-03-09T04:33:08.504064","MEAN_MOTION":15.29126358,"ECCENTRICITY":0.00084789,"INCLINATION":97.3985,"RA_OF_ASC_NODE":144.811,"ARG_OF_PERICENTER":328.9209,"MEAN_ANOMALY":31.1528,"EPHEMERIS_TYPE":0,"CLASSIFICATION_TYPE":"U","NORAD_CAT_ID":67298,"ELEMENT_SET_NO":999,"REV_AT_EPOCH":789,"BSTAR":0.0026410397,"MEAN_MOTION_DOT":0.00075331,"MEAN_MOTION_DDOT":0}]
